<?xml version="1.0" encoding="UTF-8"?>
<ndm xmlns:xsi="http://www.w3.org/2001/XMLSchema-instance" xsi:noNamespaceSchemaLocation="https://sanaregistry.org/r/ndmxml_unqualified/ndmxml-2.0.0-master-2.0.xsd">
<omm id="CCSDS_OMM_VERS" version="2.0">
<header><CREATION_DATE/><ORIGINATOR/></header><body><segment><metadata><OBJECT_NAME>ONEWEB-0128</OBJECT_NAME><OBJECT_ID>2020-100S</OBJECT_ID><CENTER_NAME>EARTH</CENTER_NAME><REF_FRAME>TEME</REF_FRAME><TIME_SYSTEM>UTC</TIME_SYSTEM><MEAN_ELEMENT_THEORY>SGP4</MEAN_ELEMENT_THEORY></metadata><data><meanElements><EPOCH>2024-01-16T10:23:50.203680</EPOCH><MEAN_MOTION>13.12442056</MEAN_MOTION><ECCENTRICITY>.0001809</ECCENTRICITY><INCLINATION>87.9028</INCLINATION><RA_OF_ASC_NODE>166.2832</RA_OF_ASC_NODE><ARG_OF_PERICENTER>100.2506</ARG_OF_PERICENTER><MEAN_ANOMALY>259.8826</MEAN_ANOMALY></meanElements><tleParameters><EPHEMERIS_TYPE>0</EPHEMERIS_TYPE><CLASSIFICATION_TYPE>U</CLASSIFICATION_TYPE><NORAD_CAT_ID>47274</NORAD_CAT_ID><ELEMENT_SET_NO>999</ELEMENT_SET_NO><REV_AT_EPOCH>14895</REV_AT_EPOCH><BSTAR>-.8811E-3</BSTAR><MEAN_MOTION_DOT>-.304E-5</MEAN_MOTION_DOT><MEAN_MOTION_DDOT>0</MEAN_MOTION_DDOT></tleParameters></data></segment></body></omm>
<omm id="CCSDS_OMM_VERS" version="2.0">
<header><CREATION_DATE/><ORIGINATOR/></header><body><segment><metadata><OBJECT_NAME>ONEWEB-0129</OBJECT_NAME><OBJECT_ID>2020-100T</OBJECT_ID><CENTER_NAME>EARTH</CENTER_NAME><REF_FRAME>TEME</REF_FRAME><TIME_SYSTEM>UTC</TIME_SYSTEM><MEAN_ELEMENT_THEORY>SGP4</MEAN_ELEMENT_THEORY></metadata><data><meanElements><EPOCH>2024-01-16T09:54:08.335872</EPOCH><MEAN_MOTION>13.12441506</MEAN_MOTION><ECCENTRICITY>.0002146</ECCENTRICITY><INCLINATION>87.9023</INCLINATION><RA_OF_ASC_NODE>166.2639</RA_OF_ASC_NODE><ARG_OF_PERICENTER>45.4241</ARG_OF_PERICENTER><MEAN_ANOMALY>314.7063</MEAN_ANOMALY></meanElements><tleParameters><EPHEMERIS_TYPE>0</EPHEMERIS_TYPE><CLASSIFICATION_TYPE>U</CLASSIFICATION_TYPE><NORAD_CAT_ID>47275</NORAD_CAT_ID><ELEMENT_SET_NO>999</ELEMENT_SET_NO><REV_AT_EPOCH>14888</REV_AT_EPOCH><BSTAR>.93223E-3</BSTAR><MEAN_MOTION_DOT>.348E-5</MEAN_MOTION_DOT><MEAN_MOTION_DDOT>0</MEAN_MOTION_DDOT></tleParameters></data></segment></body></omm>
<omm id="CCSDS_OMM_VERS" version="2.0">
<header><CREATION_DATE/><ORIGINATOR/></header><body><segment><metadata><OBJECT_NAME>ONEWEB-0130</OBJECT_NAME><OBJECT_ID>2020-100U</OBJECT_ID><CENTER_NAME>EARTH</CENTER_NAME><REF_FRAME>TEME</REF_FRAME><TIME_SYSTEM>UTC</TIME_SYSTEM><MEAN_ELEMENT_THEORY>SGP4</MEAN_ELEMENT_THEORY></metadata><data><meanElements><EPOCH>2024-01-16T19:44:10.562208</EPOCH><MEAN_MOTION>13.12441798</MEAN_MOTION><ECCENTRICITY>.0001637</ECCENTRICITY><INCLINATION>87.9021</INCLINATION><RA_OF_ASC_NODE>166.1935</RA_OF_ASC_NODE><ARG_OF_PERICENTER>94.8593</ARG_OF_PERICENTER><MEAN_ANOMALY>265.2722</MEAN_ANOMALY></meanElements><tleParameters><EPHEMERIS_TYPE>0</EPHEMERIS_TYPE><CLASSIFICATION_TYPE>U</CLASSIFICATION_TYPE><NORAD_CAT_ID>47276</NORAD_CAT_ID><ELEMENT_SET_NO>999</ELEMENT_SET_NO><REV_AT_EPOCH>14890</REV_AT_EPOCH><BSTAR>-.10099E-2</BSTAR><MEAN_MOTION_DOT>-.351E-5</MEAN_MOTION_DOT><MEAN_MOTION_DDOT>0</MEAN_MOTION_DDOT></tleParameters></data></segment></body></omm>
<omm id="CCSDS_OMM_VERS" version="2.0">
<header><CREATION_DATE/><ORIGINATOR/></header><body><segment><metadata><OBJECT_NAME>ONEWEB-0131</OBJECT_NAME><OBJECT_ID>2020-100V</OBJECT_ID><CENTER_NAME>EARTH</CENTER_NAME><REF_FRAME>TEME</REF_FRAME><TIME_SYSTEM>UTC</TIME_SYSTEM><MEAN_ELEMENT_THEORY>SGP4</MEAN_ELEMENT_THEORY></metadata><data><meanElements><EPOCH>2024-01-16T10:30:42.091488</EPOCH><MEAN_MOTION>13.12442476</MEAN_MOTION><ECCENTRICITY>.0001567</ECCENTRICITY><INCLINATION>87.9024</INCLINATION><RA_OF_ASC_NODE>166.2799</RA_OF_ASC_NODE><ARG_OF_PERICENTER>101.0267</ARG_OF_PERICENTER><MEAN_ANOMALY>259.1038</MEAN_ANOMALY></meanElements><tleParameters><EPHEMERIS_TYPE>0</EPHEMERIS_TYPE><CLASSIFICATION_TYPE>U</CLASSIFICATION_TYPE><NORAD_CAT_ID>47277</NORAD_CAT_ID><ELEMENT_SET_NO>999</ELEMENT_SET_NO><REV_AT_EPOCH>14889</REV_AT_EPOCH><BSTAR>-.14507E-2</BSTAR><MEAN_MOTION_DOT>-.509E-5</MEAN_MOTION_DOT><MEAN_MOTION_DDOT>0</MEAN_MOTION_DDOT></tleParameters></data></segment></body></omm>
<omm id="CCSDS_OMM_VERS" version="2.0">
<header><CREATION_DATE/><ORIGINATOR/></header><body><segment><metadata><OBJECT_NAME>ONEWEB-0132</OBJECT_NAME><OBJECT_ID>2020-100W</OBJECT_ID><CENTER_NAME>EARTH</CENTER_NAME><REF_FRAME>TEME</REF_FRAME><TIME_SYSTEM>UTC</TIME_SYSTEM><MEAN_ELEMENT_THEORY>SGP4</MEAN_ELEMENT_THEORY></metadata><data><meanElements><EPOCH>2024-01-16T11:11:53.194560</EPOCH><MEAN_MOTION>13.12444069</MEAN_MOTION><ECCENTRICITY>.0001456</ECCENTRICITY><INCLINATION>87.9022</INCLINATION><RA_OF_ASC_NODE>166.2757</RA_OF_ASC_NODE><ARG_OF_PERICENTER>107.1688</ARG_OF_PERICENTER><MEAN_ANOMALY>252.9600</MEAN_ANOMALY></meanElements><tleParameters><EPHEMERIS_TYPE>0</EPHEMERIS_TYPE><CLASSIFICATION_TYPE>U</CLASSIFICATION_TYPE><NORAD_CAT_ID>47278</NORAD_CAT_ID><ELEMENT_SET_NO>999</ELEMENT_SET_NO><REV_AT_EPOCH>14879</REV_AT_EPOCH><BSTAR>.62878E-3</BSTAR><MEAN_MOTION_DOT>.239E-5</MEAN_MOTION_DOT><MEAN_MOTION_DDOT>0</MEAN_MOTION_DDOT></tleParameters></data></segment></body></omm>
<omm id="CCSDS_OMM_VERS" version="2.0">
<header><CREATION_DATE/><ORIGINATOR/></header><body><segment><metadata><OBJECT_NAME>ONEWEB-0133</OBJECT_NAME><OBJECT_ID>2020-100X</OBJECT_ID><CENTER_NAME>EARTH</CENTER_NAME><REF_FRAME>TEME</REF_FRAME><TIME_SYSTEM>UTC</TIME_SYSTEM><MEAN_ELEMENT_THEORY>SGP4</MEAN_ELEMENT_THEORY></metadata><data><meanElements><EPOCH>2024-01-16T11:34:45.003648</EPOCH><MEAN_MOTION>13.12441920</MEAN_MOTION><ECCENTRICITY>.0001516</ECCENTRICITY><INCLINATION>87.9018</INCLINATION><RA_OF_ASC_NODE>166.2801</RA_OF_ASC_NODE><ARG_OF_PERICENTER>99.9297</ARG_OF_PERICENTER><MEAN_ANOMALY>260.2003</MEAN_ANOMALY></meanElements><tleParameters><EPHEMERIS_TYPE>0</EPHEMERIS_TYPE><CLASSIFICATION_TYPE>U</CLASSIFICATION_TYPE><NORAD_CAT_ID>47279</NORAD_CAT_ID><ELEMENT_SET_NO>999</ELEMENT_SET_NO><REV_AT_EPOCH>14895</REV_AT_EPOCH><BSTAR>.88845E-3</BSTAR><MEAN_MOTION_DOT>.332E-5</MEAN_MOTION_DOT><MEAN_MOTION_DDOT>0</MEAN_MOTION_DDOT></tleParameters></data></segment></body></omm>
<omm id="CCSDS_OMM_VERS" version="2.0">
<header><CREATION_DATE/><ORIGINATOR/></header><body><segment><metadata><OBJECT_NAME>ONEWEB-0134</OBJECT_NAME><OBJECT_ID>2020-100Y</OBJECT_ID><CENTER_NAME>EARTH</CENTER_NAME><REF_FRAME>TEME</REF_FRAME><TIME_SYSTEM>UTC</TIME_SYSTEM><MEAN_ELEMENT_THEORY>SGP4</MEAN_ELEMENT_THEORY></metadata><data><meanElements><EPOCH>2024-01-16T10:51:17.461152</EPOCH><MEAN_MOTION>13.12444091</MEAN_MOTION><ECCENTRICITY>.0001734</ECCENTRICITY><INCLINATION>87.9015</INCLINATION><RA_OF_ASC_NODE>166.2758</RA_OF_ASC_NODE><ARG_OF_PERICENTER>93.9968</ARG_OF_PERICENTER><MEAN_ANOMALY>266.1359</MEAN_ANOMALY></meanElements><tleParameters><EPHEMERIS_TYPE>0</EPHEMERIS_TYPE><CLASSIFICATION_TYPE>U</CLASSIFICATION_TYPE><NORAD_CAT_ID>47280</NORAD_CAT_ID><ELEMENT_SET_NO>999</ELEMENT_SET_NO><REV_AT_EPOCH>14892</REV_AT_EPOCH><BSTAR>-.55758E-3</BSTAR><MEAN_MOTION_DOT>-.188E-5</MEAN_MOTION_DOT><MEAN_MOTION_DDOT>0</MEAN_MOTION_DDOT></tleParameters></data></segment></body></omm>
<omm id="CCSDS_OMM_VERS" version="2.0">
<header><CREATION_DATE/><ORIGINATOR/></header><body><segment><metadata><OBJECT_NAME>ONEWEB-0135</OBJECT_NAME><OBJECT_ID>2020-100Z</OBJECT_ID><CENTER_NAME>EARTH</CENTER_NAME><REF_FRAME>TEME</REF_FRAME><TIME_SYSTEM>UTC</TIME_SYSTEM><MEAN_ELEMENT_THEORY>SGP4</MEAN_ELEMENT_THEORY></metadata><data><meanElements><EPOCH>2024-01-16T10:05:32.887392</EPOCH><MEAN_MOTION>13.12441453</MEAN_MOTION><ECCENTRICITY>.0001557</ECCENTRICITY><INCLINATION>87.9022</INCLINATION><RA_OF_ASC_NODE>166.2888</RA_OF_ASC_NODE><ARG_OF_PERICENTER>96.9999</ARG_OF_PERICENTER><MEAN_ANOMALY>263.1307</MEAN_ANOMALY></meanElements><tleParameters><EPHEMERIS_TYPE>0</EPHEMERIS_TYPE><CLASSIFICATION_TYPE>U</CLASSIFICATION_TYPE><NORAD_CAT_ID>47281</NORAD_CAT_ID><ELEMENT_SET_NO>999</ELEMENT_SET_NO><REV_AT_EPOCH>14894</REV_AT_EPOCH><BSTAR>.16999E-3</BSTAR><MEAN_MOTION_DOT>.74E-6</MEAN_MOTION_DOT><MEAN_MOTION_DDOT>0</MEAN_MOTION_DDOT></tleParameters></data></segment></body></omm>
<omm id="CCSDS_OMM_VERS" version="2.0">
<header><CREATION_DATE/><ORIGINATOR/></header><body><segment><metadata><OBJECT_NAME>ONEWEB-0136</OBJECT_NAME><OBJECT_ID>2020-100AA</OBJECT_ID><CENTER_NAME>EARTH</CENTER_NAME><REF_FRAME>TEME</REF_FRAME><TIME_SYSTEM>UTC</TIME_SYSTEM><MEAN_ELEMENT_THEORY>SGP4</MEAN_ELEMENT_THEORY></metadata><data><meanElements><EPOCH>2024-01-16T10:37:33.917088</EPOCH><MEAN_MOTION>13.12443500</MEAN_MOTION><ECCENTRICITY>.0001981</ECCENTRICITY><INCLINATION>87.9021</INCLINATION><RA_OF_ASC_NODE>166.2533</RA_OF_ASC_NODE><ARG_OF_PERICENTER>89.8997</ARG_OF_PERICENTER><MEAN_ANOMALY>270.2358</MEAN_ANOMALY></meanElements><tleParameters><EPHEMERIS_TYPE>0</EPHEMERIS_TYPE><CLASSIFICATION_TYPE>U</CLASSIFICATION_TYPE><NORAD_CAT_ID>47282</NORAD_CAT_ID><ELEMENT_SET_NO>999</ELEMENT_SET_NO><REV_AT_EPOCH>14887</REV_AT_EPOCH><BSTAR>-.93045E-3</BSTAR><MEAN_MOTION_DOT>-.322E-5</MEAN_MOTION_DOT><MEAN_MOTION_DDOT>0</MEAN_MOTION_DDOT></tleParameters></data></segment></body></omm>

</ndm>
